STARLINK-31572          
1 59333U 24057P   26068.39908259 -.00001927  00000+0 -60542-4 0  9999
2 59333  42.9963 200.0400 0000332 181.9274 178.1577 15.27578400109661
BANDWAGON-2 OBJECT D    
1 62380U 24247D   26068.52261193  .00011259  00000+0  40119-3 0  9994
2 62380  44.9954 115.6710 0003488 351.1453   8.9368 15.29076102 67732
