[{"OBJECT_NAME":"STARLINK-31572","OBJECT_ID":"2024-057P","EPOCH":"2026-03-09T09:34:40.735776","MEAN_MOTION":15.275784,"ECCENTRICITY":3.329e-5,"INCLINATION":42.9963,"RA_OF_ASC_NODE":200.04,"ARG_OF_PERICENTER":181.9274,"MEAN_ANOMALY":178.1577,"EPHEMERIS_TYPE":0,"CLASSIFICATION_TYPE":"U","NORAD_CAT_ID":59333,"ELEMENT_SET_NO":999,"REV_AT_EPOCH":10966,"BSTAR":-6.05419e-5,"MEAN_MOTION_DOT":-1.927e-5,"MEAN_MOTION_DDOT":0},{"OBJECT_NAME":"BANDWAGON-2 OBJECT D","OBJECT_ID":"2024-247D","EPOCH":"2026-03-09T12:32:33.670752","MEAN_MOTION":15.29076102,"ECCENTRICITY":0.00034883,"INCLINATION":44.9954,"RA_OF_ASC_NODE":115.671,"ARG_OF_PERICENTER":351.1453,"MEAN_ANOMALY":8.9368,"EPHEMERIS_TYPE":0,"CLASSIFICATION_TYPE":"U","NORAD_CAT_ID":62380,"ELEMENT_SET_NO":999,"REV_AT_EPOCH":6773,"BSTAR":0.00040119131,"MEAN_MOTION_DOT":0.00011259,"MEAN_MOTION_DDOT":0}]
